#aV2016  4 25  0  0  0.00000000     288 DD+AD WGS84 FIT  NGA
## 1894  86400.00000000   300.00000000 57503 0.0000000000000
+   31     1  2  3  5  6  7  8  9 10 11 12 13 14 15 16 17 18
+         19 20 21 22 23 24 25 26 27 28 29 30 31 32  0  0  0
+          0  0  0  0  0  0  0  0  0  0  0  0  0  0  0  0  0
+          0  0  0  0  0  0  0  0  0  0  0  0  0  0  0  0  0
+          0  0  0  0  0  0  0  0  0  0  0  0  0  0  0  0  0
++         2  2  2  2  2  2  2  2  2  2  2  2  2  2  2  2  2
++         2  2  2  2  2  2  2  2  2  2  2  2  2  2  0  0  0
++         0  0  0  0  0  0  0  0  0  0  0  0  0  0  0  0  0
++         0  0  0  0  0  0  0  0  0  0  0  0  0  0  0  0  0
++         0  0  0  0  0  0  0  0  0  0  0  0  0  0  0  0  0
%c cc cc ccc ccc cccc cccc cccc cccc ccccc ccccc ccccc ccccc
%c cc cc ccc ccc cccc cccc cccc cccc ccccc ccccc ccccc ccccc
%f  0.0000000  0.000000000  0.00000000000  0.000000000000000
%f  0.0000000  0.000000000  0.00000000000  0.000000000000000
%i    0    0    0    0      0      0      0      0         0
%i    0    0    0    0      0      0      0      0         0
/*      NGA, ST. LOUIS,MO.                                  
/*   EPHEMERIS COMPUTED FROM 2 DAYS OF DATA                 
/*   EPOCHA v2.4 SMOOTHER                                   
/*   G1762 IERS2010 SATAF SATAPC                            
*  2016  4 25  4 15  0.00000000
P  1  20848.107762  14167.606274  -8809.232688     18.369805                    
V  1 -11128.639742  -1634.479791 -28987.984453      0.011708                    
P  2  -1099.519973 -16542.992464  21251.121945    595.349555                    
V  2  24923.635097   7362.888054   6771.127348     -0.019398                    
P  3  13295.507439  18167.770230  14093.669799    -51.087015                    
V  3   1004.140823  17998.219099 -24163.893134     -0.039729                    
P  5  -2427.707699 -26100.842846   3491.389608   -126.129053                    
V  5   4203.165271   3827.614561  31142.078871      0.031419                    
P  6  15079.287703  -9241.199077  19830.269272    180.767243                    
V  6  23290.989456   9532.005935 -13276.902460      0.055999                    
P  7  25451.229722   5099.923605  -6417.398095    458.247641                    
V  7   6871.997849   5041.937197  30229.445961     -0.020890                    
P  8   3877.491664  15829.080120 -20912.553926    -32.681448                    
V  8 -20770.278356  16759.891769   8844.744418     -0.014369                    
P  9  20908.059207  -2938.677571  16105.853897    116.552273                    
V  9 -14256.432825  14852.857285  21178.934902      0.074109                    
P 10 -12001.986720  12530.795749 -20073.919278     -6.586007                    
V 10  -5723.674837 -24927.092389 -12188.773351     -0.094533                    
P 11  17303.150122  12627.859406 -16282.145276   -643.324283                    
V 11 -19825.166754   3333.385780 -19097.194820     -0.029228                    
P 12 -10369.057063 -21608.178629  11557.793487    377.508271                    
V 12   -387.845242 -14821.234474 -27535.216535      0.013285                    
P 13   5394.004062 -18629.467934 -18318.282942    -13.322003                    
V 13  19781.640855 -11665.887732  17730.171594     -0.026644                    
P 14 -21106.352798  15974.452353    854.016835    -10.253765                    
V 14  -2292.090161  -1834.510518 -31916.166268     -0.021153                    
P 15  -8613.573325 -13589.239585 -21225.310618   -308.003332                    
V 15  19841.293244 -18053.146032   3874.827880     -0.017099                    
P 16    111.188669  26015.762482   4069.872687    -22.127765                    
V 16  -2718.809280  -5075.544565  32116.221062      0.027136                    
P 17  21799.847122 -14743.111900  -2399.030814   -203.349308                    
V 17  -1217.626610   4090.689201 -32026.447559     -0.003175                    
P 18 -16093.405819  -1078.924485 -20594.457337    508.424627                    
V 18  -5139.268877 -27025.396394   5035.300020      0.042104                    
P 19  18070.767359 -18360.329197   6996.828432   -525.675960                    
V 19   8629.029970  -3520.234853 -30126.954104     -0.000579                    
P 20 -13548.265163 -20380.852089 -10414.707462    408.143205                    
V 20    -90.563309 -13528.066582  27029.060605      0.024298                    
P 21 -25014.841248  -1767.623217  -8370.545848   -520.349460                    
V 21 -10007.230134  -6768.745116  28517.524612     -0.014130                    
P 22   9506.406317  24118.433093   5691.629223    355.852735                    
V 22  -2403.770856   7665.158198 -29837.685481     -0.077089                    
P 23  15246.898187   6824.258326  20918.107925   -170.916112                    
V 23 -19498.246123  17363.702745   8184.319775     -0.016958                    
P 24 -18655.713830 -15061.747836 -11692.276840    -16.065111                    
V 24  14748.867806   2279.911088 -26407.666993     -0.005727                    
P 25 -14979.701822 -10574.248195  19167.607865   -159.391964                    
V 25  -3276.166488 -24284.090375 -15666.383960     -0.070645                    
P 26  -5597.179952  22053.820596  13658.863915   -342.320558                    
V 26  -5386.909156 -16665.291086  24738.450674     -0.131605                    
P 27  -6844.593232  20098.472891 -15879.468344     85.710490                    
V 27 -16514.369722  11697.459065  22123.748210      0.039472                    
P 28  12353.668776 -10597.475391 -20352.247340    518.521359                    
V 28   3592.823875  26994.664615 -11569.552600      0.026243                    
P 29 -19286.924420   -852.652375  18230.426788    657.081775                    
V 29  17647.746349 -14965.778358  18026.612625      0.001420                    
P 30  21686.502355  -2313.463280 -15231.821757    119.702453                    
V 30  16819.413973   9722.145583  22392.532766      0.033776                    
P 31 -12890.070594  10310.486715  20988.992299    272.116595                    
V 31 -24228.846204 -10243.276395  -9541.050621     -0.018008                    
P 32 -20519.401743  16838.455158   -775.515223      2.273413                    
V 32  -1096.315069  -2806.996200 -31728.533892     -0.040762                    
EOF
